CCSDS_OMM_VERS = 2.0
CREATION_DATE  = 
ORIGINATOR     = 

OBJECT_NAME    = STARLINK-35810
OBJECT_ID      = 2025-268U
CENTER_NAME    = EARTH
REF_FRAME      = TEME
TIME_SYSTEM    = UTC
MEAN_ELEMENT_THEORY = SGP/SGP4

EPOCH          = 2025-12-03T04:00:01.998720
MEAN_MOTION    = 15.75206196
ECCENTRICITY   = .0002244
INCLINATION    = 42.9987
RA_OF_ASC_NODE = 177.7960
ARG_OF_PERICENTER = 276.5555
MEAN_ANOMALY   = 70.0817

EPHEMERIS_TYPE = 0
CLASSIFICATION_TYPE = U
NORAD_CAT_ID   = 66575
ELEMENT_SET_NO = 999
REV_AT_EPOCH   = 313
BSTAR          = -.2946E-2
MEAN_MOTION_DOT = -.433789E-2
MEAN_MOTION_DDOT = 0

CCSDS_OMM_VERS = 2.0
CREATION_DATE  = 
ORIGINATOR     = 

OBJECT_NAME    = STARLINK-35814
OBJECT_ID      = 2025-268V
CENTER_NAME    = EARTH
REF_FRAME      = TEME
TIME_SYSTEM    = UTC
MEAN_ELEMENT_THEORY = SGP/SGP4

EPOCH          = 2025-12-03T04:00:01.998720
MEAN_MOTION    = 15.75198706
ECCENTRICITY   = .0002069
INCLINATION    = 42.9987
RA_OF_ASC_NODE = 177.7910
ARG_OF_PERICENTER = 275.2898
MEAN_ANOMALY   = 73.2696

EPHEMERIS_TYPE = 0
CLASSIFICATION_TYPE = U
NORAD_CAT_ID   = 66576
ELEMENT_SET_NO = 999
REV_AT_EPOCH   = 313
BSTAR          = -.28793E-2
MEAN_MOTION_DOT = -.424288E-2
MEAN_MOTION_DDOT = 0

CCSDS_OMM_VERS = 2.0
CREATION_DATE  = 
ORIGINATOR     = 

OBJECT_NAME    = STARLINK-35815
OBJECT_ID      = 2025-268W
CENTER_NAME    = EARTH
REF_FRAME      = TEME
TIME_SYSTEM    = UTC
MEAN_ELEMENT_THEORY = SGP/SGP4

EPOCH          = 2025-12-03T04:00:01.998720
MEAN_MOTION    = 15.75252228
ECCENTRICITY   = .0001536
INCLINATION    = 42.9988
RA_OF_ASC_NODE = 177.7863
ARG_OF_PERICENTER = 269.8028
MEAN_ANOMALY   = 80.6530

EPHEMERIS_TYPE = 0
CLASSIFICATION_TYPE = U
NORAD_CAT_ID   = 66577
ELEMENT_SET_NO = 999
REV_AT_EPOCH   = 313
BSTAR          = -.34249E-2
MEAN_MOTION_DOT = -.50119E-2
MEAN_MOTION_DDOT = 0

CCSDS_OMM_VERS = 2.0
CREATION_DATE  = 
ORIGINATOR     = 

OBJECT_NAME    = STARLINK-35743
OBJECT_ID      = 2025-268X
CENTER_NAME    = EARTH
REF_FRAME      = TEME
TIME_SYSTEM    = UTC
MEAN_ELEMENT_THEORY = SGP/SGP4

EPOCH          = 2025-12-03T04:00:01.998720
MEAN_MOTION    = 15.75226031
ECCENTRICITY   = .0001595
INCLINATION    = 42.9988
RA_OF_ASC_NODE = 177.7815
ARG_OF_PERICENTER = 272.5816
MEAN_ANOMALY   = 79.7958

EPHEMERIS_TYPE = 0
CLASSIFICATION_TYPE = U
NORAD_CAT_ID   = 66578
ELEMENT_SET_NO = 999
REV_AT_EPOCH   = 313
BSTAR          = -.3107E-2
MEAN_MOTION_DOT = -.456571E-2
MEAN_MOTION_DDOT = 0

CCSDS_OMM_VERS = 2.0
CREATION_DATE  = 
ORIGINATOR     = 

OBJECT_NAME    = STARLINK-35868
OBJECT_ID      = 2025-268Y
CENTER_NAME    = EARTH
REF_FRAME      = TEME
TIME_SYSTEM    = UTC
MEAN_ELEMENT_THEORY = SGP/SGP4

EPOCH          = 2025-12-03T04:00:01.998720
MEAN_MOTION    = 15.75252499
ECCENTRICITY   = .0002515
INCLINATION    = 42.9987
RA_OF_ASC_NODE = 177.7764
ARG_OF_PERICENTER = 271.7772
MEAN_ANOMALY   = 82.5097

EPHEMERIS_TYPE = 0
CLASSIFICATION_TYPE = U
NORAD_CAT_ID   = 66579
ELEMENT_SET_NO = 999
REV_AT_EPOCH   = 313
BSTAR          = -.34168E-2
MEAN_MOTION_DOT = -.500214E-2
MEAN_MOTION_DDOT = 0

CCSDS_OMM_VERS = 2.0
CREATION_DATE  = 
ORIGINATOR     = 

OBJECT_NAME    = STARLINK-35872
OBJECT_ID      = 2025-268Z
CENTER_NAME    = EARTH
REF_FRAME      = TEME
TIME_SYSTEM    = UTC
MEAN_ELEMENT_THEORY = SGP/SGP4

EPOCH          = 2025-12-03T04:00:01.998720
MEAN_MOTION    = 15.75249695
ECCENTRICITY   = .0002425
INCLINATION    = 42.9986
RA_OF_ASC_NODE = 177.7720
ARG_OF_PERICENTER = 272.6443
MEAN_ANOMALY   = 83.5591

EPHEMERIS_TYPE = 0
CLASSIFICATION_TYPE = U
NORAD_CAT_ID   = 66580
ELEMENT_SET_NO = 999
REV_AT_EPOCH   = 313
BSTAR          = -.33777E-2
MEAN_MOTION_DOT = -.494742E-2
MEAN_MOTION_DDOT = 0

CCSDS_OMM_VERS = 2.0
CREATION_DATE  = 
ORIGINATOR     = 

OBJECT_NAME    = STARLINK-35744
OBJECT_ID      = 2025-268AA
CENTER_NAME    = EARTH
REF_FRAME      = TEME
TIME_SYSTEM    = UTC
MEAN_ELEMENT_THEORY = SGP/SGP4

EPOCH          = 2025-12-03T04:00:01.998720
MEAN_MOTION    = 15.75232204
ECCENTRICITY   = .0002334
INCLINATION    = 42.9988
RA_OF_ASC_NODE = 177.7666
ARG_OF_PERICENTER = 273.6535
MEAN_ANOMALY   = 84.4783

EPHEMERIS_TYPE = 0
CLASSIFICATION_TYPE = U
NORAD_CAT_ID   = 66581
ELEMENT_SET_NO = 999
REV_AT_EPOCH   = 308
BSTAR          = -.3221E-2
MEAN_MOTION_DOT = -.472646E-2
MEAN_MOTION_DDOT = 0

CCSDS_OMM_VERS = 2.0
CREATION_DATE  = 
ORIGINATOR     = 

OBJECT_NAME    = STARLINK-35746
OBJECT_ID      = 2025-268AB
CENTER_NAME    = EARTH
REF_FRAME      = TEME
TIME_SYSTEM    = UTC
MEAN_ELEMENT_THEORY = SGP/SGP4

EPOCH          = 2025-12-03T04:00:01.998720
MEAN_MOTION    = 15.75273697
ECCENTRICITY   = .000192
INCLINATION    = 42.9987
RA_OF_ASC_NODE = 177.7618
ARG_OF_PERICENTER = 290.2434
MEAN_ANOMALY   = 69.7738

EPHEMERIS_TYPE = 0
CLASSIFICATION_TYPE = U
NORAD_CAT_ID   = 66582
ELEMENT_SET_NO = 999
REV_AT_EPOCH   = 313
BSTAR          = -.35465E-2
MEAN_MOTION_DOT = -.518464E-2
MEAN_MOTION_DDOT = 0

CCSDS_OMM_VERS = 2.0
CREATION_DATE  = 
ORIGINATOR     = 

OBJECT_NAME    = STARLINK-35941
OBJECT_ID      = 2025-268AC
CENTER_NAME    = EARTH
REF_FRAME      = TEME
TIME_SYSTEM    = UTC
MEAN_ELEMENT_THEORY = SGP/SGP4

EPOCH          = 2025-12-03T04:00:01.998720
MEAN_MOTION    = 15.75248729
ECCENTRICITY   = .000193
INCLINATION    = 42.9987
RA_OF_ASC_NODE = 177.7570
ARG_OF_PERICENTER = 282.2515
MEAN_ANOMALY   = 79.7033

EPHEMERIS_TYPE = 0
CLASSIFICATION_TYPE = U
NORAD_CAT_ID   = 66583
ELEMENT_SET_NO = 999
REV_AT_EPOCH   = 313
BSTAR          = -.33383E-2
MEAN_MOTION_DOT = -.489191E-2
MEAN_MOTION_DDOT = 0

CCSDS_OMM_VERS = 2.0
CREATION_DATE  = 
ORIGINATOR     = 

OBJECT_NAME    = STARLINK-35939
OBJECT_ID      = 2025-268AD
CENTER_NAME    = EARTH
REF_FRAME      = TEME
TIME_SYSTEM    = UTC
MEAN_ELEMENT_THEORY = SGP/SGP4

EPOCH          = 2025-12-03T04:00:01.998720
MEAN_MOTION    = 15.75206090
ECCENTRICITY   = .0001746
INCLINATION    = 42.9989
RA_OF_ASC_NODE = 177.7524
ARG_OF_PERICENTER = 275.1969
MEAN_ANOMALY   = 88.7017

EPHEMERIS_TYPE = 0
CLASSIFICATION_TYPE = U
NORAD_CAT_ID   = 66584
ELEMENT_SET_NO = 999
REV_AT_EPOCH   = 313
BSTAR          = -.29541E-2
MEAN_MOTION_DOT = -.434859E-2
MEAN_MOTION_DDOT = 0

CCSDS_OMM_VERS = 2.0
CREATION_DATE  = 
ORIGINATOR     = 

OBJECT_NAME    = STARLINK-35963
OBJECT_ID      = 2025-268AE
CENTER_NAME    = EARTH
REF_FRAME      = TEME
TIME_SYSTEM    = UTC
MEAN_ELEMENT_THEORY = SGP/SGP4

EPOCH          = 2025-12-03T04:00:01.998720
MEAN_MOTION    = 15.75251483
ECCENTRICITY   = .0002415
INCLINATION    = 42.9989
RA_OF_ASC_NODE = 177.7482
ARG_OF_PERICENTER = 271.8771
MEAN_ANOMALY   = 93.9085

EPHEMERIS_TYPE = 0
CLASSIFICATION_TYPE = U
NORAD_CAT_ID   = 66585
ELEMENT_SET_NO = 999
REV_AT_EPOCH   = 313
BSTAR          = -.3361E-2
MEAN_MOTION_DOT = -.492456E-2
MEAN_MOTION_DDOT = 0

CCSDS_OMM_VERS = 2.0
CREATION_DATE  = 
ORIGINATOR     = 

OBJECT_NAME    = TJS-21
OBJECT_ID      = 2025-269A
CENTER_NAME    = EARTH
REF_FRAME      = TEME
TIME_SYSTEM    = UTC
MEAN_ELEMENT_THEORY = SGP/SGP4

EPOCH          = 2025-11-22T00:38:56.616288
MEAN_MOTION    = 2.00992210
ECCENTRICITY   = .75179873
INCLINATION    = 51.0366
RA_OF_ASC_NODE = 174.7096
ARG_OF_PERICENTER = 225.0489
MEAN_ANOMALY   = 41.6572

EPHEMERIS_TYPE = 0
CLASSIFICATION_TYPE = U
NORAD_CAT_ID   = 66586
ELEMENT_SET_NO = 999
REV_AT_EPOCH   = 2
BSTAR          = .53569978E-3
MEAN_MOTION_DOT = .3197E-4
MEAN_MOTION_DDOT = 0

