STARLINK-35810          
1 66575U 25268U   25337.16668980 -.00433789  00000+0 -29460-2 0  9994
2 66575  42.9987 177.7960 0002244 276.5555  70.0817 15.75206196  3136
STARLINK-35814          
1 66576U 25268V   25337.16668980 -.00424288  00000+0 -28793-2 0  9997
2 66576  42.9987 177.7910 0002069 275.2898  73.2696 15.75198706  3130
STARLINK-35815          
1 66577U 25268W   25337.16668980 -.00501190  00000+0 -34249-2 0  9999
2 66577  42.9988 177.7863 0001536 269.8028  80.6530 15.75252228  3130
STARLINK-35743          
1 66578U 25268X   25337.16668980 -.00456571  00000+0 -31070-2 0  9991
2 66578  42.9988 177.7815 0001595 272.5816  79.7958 15.75226031  3135
STARLINK-35868          
1 66579U 25268Y   25337.16668980 -.00500214  00000+0 -34168-2 0  9997
2 66579  42.9987 177.7764 0002515 271.7772  82.5097 15.75252499  3136
STARLINK-35872          
1 66580U 25268Z   25337.16668980 -.00494742  00000+0 -33777-2 0  9992
2 66580  42.9986 177.7720 0002425 272.6443  83.5591 15.75249695  3138
STARLINK-35744          
1 66581U 25268AA  25337.16668980 -.00472646  00000+0 -32210-2 0  9993
2 66581  42.9988 177.7666 0002334 273.6535  84.4783 15.75232204  3087
STARLINK-35746          
1 66582U 25268AB  25337.16668980 -.00518464  00000+0 -35465-2 0  9998
2 66582  42.9987 177.7618 0001920 290.2434  69.7738 15.75273697  3130
STARLINK-35941          
1 66583U 25268AC  25337.16668980 -.00489191  00000+0 -33383-2 0  9990
2 66583  42.9987 177.7570 0001930 282.2515  79.7033 15.75248729  3137
STARLINK-35939          
1 66584U 25268AD  25337.16668980 -.00434859  00000+0 -29541-2 0  9993
2 66584  42.9989 177.7524 0001746 275.1969  88.7017 15.75206090  3135
STARLINK-35963          
1 66585U 25268AE  25337.16668980 -.00492456  00000+0 -33610-2 0  9993
2 66585  42.9989 177.7482 0002415 271.8771  93.9085 15.75251483  3136
TJS-21                  
1 66586U 25269A   25326.02704417  .00003197  00000+0  53570-3 0  9990
2 66586  51.0366 174.7096 7517987 225.0489  41.6572  2.00992210    24
